[{"OBJECT_NAME":"STARLINK-3293","OBJECT_ID":"2021-125W","EPOCH":"2026-03-09T19:41:30.278976","MEAN_MOTION":15.08840405,"ECCENTRICITY":0.00012576,"INCLINATION":53.2166,"RA_OF_ASC_NODE":248.5343,"ARG_OF_PERICENTER":86.2582,"MEAN_ANOMALY":273.8554,"EPHEMERIS_TYPE":0,"CLASSIFICATION_TYPE":"U","NORAD_CAT_ID":50176,"ELEMENT_SET_NO":999,"REV_AT_EPOCH":23666,"BSTAR":0.00011188765,"MEAN_MOTION_DOT":1.493e-5,"MEAN_MOTION_DDOT":0},{"OBJECT_NAME":"COSMOS 2251 DEB","OBJECT_ID":"1993-036AEJ","EPOCH":"2026-03-09T08:48:35.922816","MEAN_MOTION":15.02476958,"ECCENTRICITY":0.00716068,"INCLINATION":74.0345,"RA_OF_ASC_NODE":70.0126,"ARG_OF_PERICENTER":118.4324,"MEAN_ANOMALY":242.4105,"EPHEMERIS_TYPE":0,"CLASSIFICATION_TYPE":"U","NORAD_CAT_ID":34955,"ELEMENT_SET_NO":999,"REV_AT_EPOCH":91334,"BSTAR":0.00064056468,"MEAN_MOTION_DOT":8.958e-5,"MEAN_MOTION_DDOT":0}]
